{
  "type": "FeatureCollection",
  "features": [
    {
      "type": "Feature",
      "properties": {
        "norad_id": 34976,
        "name": "COSMOS 2251 DEB",
        "group": "cosmos-2251-debris",
        "lat": -60.855161396550685,
        "lon": -109.53132699135493,
        "alt_km": 617.1689086703045,
        "timestamp": "2025-12-25T11:37:44.835140+00:00",
        "meta_object_name": "COSMOS 2251 DEB",
        "meta_object_id": "1993-036AFF",
        "meta_epoch": "2025-12-24T05:42:41.204160",
        "meta_mean_motion": 14.76809395,
        "meta_eccentricity": 0.00477961,
        "meta_inclination": 74.058,
        "meta_ra_of_asc_node": 283.7455,
        "meta_arg_of_pericenter": 327.9934,
        "meta_mean_anomaly": 182.3501,
        "meta_ephemeris_type": 0,
        "meta_classification_type": "U",
        "meta_norad_cat_id": 34976,
        "meta_element_set_no": 999,
        "meta_rev_at_epoch": 88443,
        "meta_bstar": 0.0017837373,
        "meta_mean_motion_dot": 0.00012745,
        "meta_mean_motion_ddot": 0,
        "tle_line1": "1 34976U 93036AFF 25358.23797690  .00012745  00000+0  17837-2 0  9992",
        "tle_line2": "2 34976  74.0580 283.7455 0047796 327.9934 182.3501 14.76809395884438"
      },
      "geometry": {
        "type": "Point",
        "coordinates": [
          -109.53132699135493,
          -60.855161396550685
        ]
      }
    },
    {
      "type": "Feature",
      "properties": {
        "norad_id": 34979,
        "name": "COSMOS 2251 DEB",
        "group": "cosmos-2251-debris",
        "lat": 64.36080431956911,
        "lon": 25.580475620714758,
        "alt_km": 654.7223364780893,
        "timestamp": "2025-12-25T11:37:44.835150+00:00",
        "meta_object_name": "COSMOS 2251 DEB",
        "meta_object_id": "1993-036AFJ",
        "meta_epoch": "2025-12-24T02:40:34.256640",
        "meta_mean_motion": 14.79539389,
        "meta_eccentricity": 0.0049197,
        "meta_inclination": 74.0387,
        "meta_ra_of_asc_node": 244.8878,
        "meta_arg_of_pericenter": 320.4952,
        "meta_mean_anomaly": 39.2641,
        "meta_ephemeris_type": 0,
        "meta_classification_type": "U",
        "meta_norad_cat_id": 34979,
        "meta_element_set_no": 999,
        "meta_rev_at_epoch": 88388,
        "meta_bstar": 0.0011011811,
        "meta_mean_motion_dot": 8.386e-05,
        "meta_mean_motion_ddot": 0,
        "tle_line1": "1 34979U 93036AFJ 25358.11150760  .00008386  00000+0  11012-2 0  9998",
        "tle_line2": "2 34979  74.0387 244.8878 0049197 320.4952  39.2641 14.79539389883887"
      },
      "geometry": {
        "type": "Point",
        "coordinates": [
          25.580475620714758,
          64.36080431956911
        ]
      }
    },
    {
      "type": "Feature",
      "properties": {
        "norad_id": 34990,
        "name": "COSMOS 2251 DEB",
        "group": "cosmos-2251-debris",
        "lat": -43.02867150240239,
        "lon": -147.77127525938258,
        "alt_km": 746.3334040495456,
        "timestamp": "2025-12-25T11:37:44.835160+00:00",
        "meta_object_name": "COSMOS 2251 DEB",
        "meta_object_id": "1993-036AFN",
        "meta_epoch": "2025-12-15T10:28:28.781472",
        "meta_mean_motion": 14.42382837,
        "meta_eccentricity": 0.00165597,
        "meta_inclination": 74.0457,
        "meta_ra_of_asc_node": 246.3361,
        "meta_arg_of_pericenter": 308.9911,
        "meta_mean_anomaly": 50.977,
        "meta_ephemeris_type": 0,
        "meta_classification_type": "U",
        "meta_norad_cat_id": 34990,
        "meta_element_set_no": 999,
        "meta_rev_at_epoch": 87385,
        "meta_bstar": 0.00031884459,
        "meta_mean_motion_dot": 1.029e-05,
        "meta_mean_motion_ddot": 0,
        "tle_line1": "1 34990U 93036AFN 25349.43644423  .00001029  00000+0  31884-3 0  9997",
        "tle_line2": "2 34990  74.0457 246.3361 0016559 308.9911  50.9770 14.42382837873857"
      },
      "geometry": {
        "type": "Point",
        "coordinates": [
          -147.77127525938258,
          -43.02867150240239
        ]
      }
    },
    {
      "type": "Feature",
      "properties": {
        "norad_id": 34997,
        "name": "COSMOS 2251 DEB",
        "group": "cosmos-2251-debris",
        "lat": -73.85876611541526,
        "lon": -165.04702610879056,
        "alt_km": 678.4700198147166,
        "timestamp": "2025-12-25T11:37:44.835170+00:00",
        "meta_object_name": "COSMOS 2251 DEB",
        "meta_object_id": "1993-036AFV",
        "meta_epoch": "2025-12-25T02:04:43.961088",
        "meta_mean_motion": 14.45692519,
        "meta_eccentricity": 0.0097082,
        "meta_inclination": 73.8805,
        "meta_ra_of_asc_node": 287.9486,
        "meta_arg_of_pericenter": 260.9116,
        "meta_mean_anomaly": 98.1047,
        "meta_ephemeris_type": 0,
        "meta_classification_type": "U",
        "meta_norad_cat_id": 34997,
        "meta_element_set_no": 999,
        "meta_rev_at_epoch": 70925,
        "meta_bstar": 0.0014829,
        "meta_mean_motion_dot": 5.538e-05,
        "meta_mean_motion_ddot": 0,
        "tle_line1": "1 34997U 93036AFV 25359.08661992  .00005538  00000+0  14829-2 0  9994",
        "tle_line2": "2 34997  73.8805 287.9486 0097082 260.9116  98.1047 14.45692519709258"
      },
      "geometry": {
        "type": "Point",
        "coordinates": [
          -165.04702610879056,
          -73.85876611541526
        ]
      }
    },
    {
      "type": "Feature",
      "properties": {
        "norad_id": 34998,
        "name": "COSMOS 2251 DEB",
        "group": "cosmos-2251-debris",
        "lat": -41.22258057006235,
        "lon": 121.49249092962876,
        "alt_km": 721.7401041396706,
        "timestamp": "2025-12-25T11:37:44.835180+00:00",
        "meta_object_name": "COSMOS 2251 DEB",
        "meta_object_id": "1993-036AFW",
        "meta_epoch": "2025-12-24T19:57:21.845376",
        "meta_mean_motion": 14.49331635,
        "meta_eccentricity": 0.0021609,
        "meta_inclination": 74.0106,
        "meta_ra_of_asc_node": 137.2683,
        "meta_arg_of_pericenter": 281.3103,
        "meta_mean_anomaly": 229.4167,
        "meta_ephemeris_type": 0,
        "meta_classification_type": "U",
        "meta_norad_cat_id": 34998,
        "meta_element_set_no": 999,
        "meta_rev_at_epoch": 87595,
        "meta_bstar": 0.00064204804,
        "meta_mean_motion_dot": 2.432e-05,
        "meta_mean_motion_ddot": 0,
        "tle_line1": "1 34998U 93036AFW 25358.83150284  .00002432  00000+0  64205-3 0  9998",
        "tle_line2": "2 34998  74.0106 137.2683 0021609 281.3103 229.4167 14.49331635875953"
      },
      "geometry": {
        "type": "Point",
        "coordinates": [
          121.49249092962876,
          -41.22258057006235
        ]
      }
    },
    {
      "type": "Feature",
      "properties": {
        "norad_id": 35012,
        "name": "COSMOS 2251 DEB",
        "group": "cosmos-2251-debris",
        "lat": 58.63872864119177,
        "lon": -120.09218558637828,
        "alt_km": 751.7033364548361,
        "timestamp": "2025-12-25T11:37:44.835191+00:00",
        "meta_object_name": "COSMOS 2251 DEB",
        "meta_object_id": "1993-036AFZ",
        "meta_epoch": "2025-12-24T00:12:06.211008",
        "meta_mean_motion": 14.45562607,
        "meta_eccentricity": 0.0081433,
        "meta_inclination": 74.0209,
        "meta_ra_of_asc_node": 90.705,
        "meta_arg_of_pericenter": 228.4713,
        "meta_mean_anomaly": 130.9441,
        "meta_ephemeris_type": 0,
        "meta_classification_type": "U",
        "meta_norad_cat_id": 35012,
        "meta_element_set_no": 999,
        "meta_rev_at_epoch": 87724,
        "meta_bstar": 0.00017130932,
        "meta_mean_motion_dot": 6.01e-06,
        "meta_mean_motion_ddot": 0,
        "tle_line1": "1 35012U 93036AFZ 25358.00840522  .00000601  00000+0  17131-3 0  9998",
        "tle_line2": "2 35012  74.0209  90.7050 0081433 228.4713 130.9441 14.45562607877242"
      },
      "geometry": {
        "type": "Point",
        "coordinates": [
          -120.09218558637828,
          58.63872864119177
        ]
      }
    },
    {
      "type": "Feature",
      "properties": {
        "norad_id": 35014,
        "name": "COSMOS 2251 DEB",
        "group": "cosmos-2251-debris",
        "lat": 30.177112756812654,
        "lon": -171.04172168195507,
        "alt_km": 638.8181440901581,
        "timestamp": "2025-12-25T11:37:44.835201+00:00",
        "meta_object_name": "COSMOS 2251 DEB",
        "meta_object_id": "1993-036AGB",
        "meta_epoch": "2025-12-22T09:43:37.618464",
        "meta_mean_motion": 14.75357031,
        "meta_eccentricity": 0.00066485,
        "meta_inclination": 73.9987,
        "meta_ra_of_asc_node": 24.596,
        "meta_arg_of_pericenter": 203.6446,
        "meta_mean_anomaly": 156.4423,
        "meta_ephemeris_type": 0,
        "meta_classification_type": "U",
        "meta_norad_cat_id": 35014,
        "meta_element_set_no": 999,
        "meta_rev_at_epoch": 71479,
        "meta_bstar": 0.0015862083,
        "meta_mean_motion_dot": 0.00010749,
        "meta_mean_motion_ddot": 0,
        "tle_line1": "1 35014U 93036AGB 25356.40529651  .00010749  00000+0  15862-2 0  9991",
        "tle_line2": "2 35014  73.9987  24.5960 0006648 203.6446 156.4423 14.75357031714792"
      },
      "geometry": {
        "type": "Point",
        "coordinates": [
          -171.04172168195507,
          30.177112756812654
        ]
      }
    }
  ]
}